{
  "norad_id": 57055,
  "name": "STARLINK-6237",
  "history": [
    {
      "epoch": "2026-03-28T22:00:01.999584Z",
      "apogee_km": 501.30492987427897,
      "perigee_km": 499.6751079884134,
      "latitude_deg": 27.106429733645633,
      "longitude_deg": -7.737386151669046,
      "height_km": 501.3589952011547,
      "semi_major_axis_km": 6878.627018931345,
      "eccentricity": 0.00011847,
      "inclination_deg": 43.0011,
      "raan_deg": 1.6849,
      "arg_perigee_deg": 291.5647,
      "mean_anomaly_deg": 206.6953,
      "mean_motion_rev_day": 15.21773861
    },
    {
      "epoch": "2026-03-29T04:00:01.999584Z",
      "apogee_km": 500.92717519171674,
      "perigee_km": 498.7234760625852,
      "latitude_deg": 39.777784773529255,
      "longitude_deg": 176.3034174290148,
      "height_km": 503.1456477220572,
      "semi_major_axis_km": 6877.962325627151,
      "eccentricity": 0.0001602,
      "inclination_deg": 43.0006,
      "raan_deg": 0.2878,
      "arg_perigee_deg": 284.8047,
      "mean_anomaly_deg": 144.4456,
      "mean_motion_rev_day": 15.21994465
    },
    {
      "epoch": "2026-03-30T04:00:01.999584Z",
      "apogee_km": 498.7304685611434,
      "perigee_km": 497.03621714866495,
      "latitude_deg": 16.405920738798237,
      "longitude_deg": -91.17916084822575,
      "height_km": 497.4117465605178,
      "semi_major_axis_km": 6876.020342854904,
      "eccentricity": 0.0001232,
      "inclination_deg": 43.0012,
      "raan_deg": 354.6908,
      "arg_perigee_deg": 274.6115,
      "mean_anomaly_deg": 241.0007,
      "mean_motion_rev_day": 15.22639292
    },
    {
      "epoch": "2026-03-30T06:00:02.000160Z",
      "apogee_km": 498.857238522286,
      "perigee_km": 496.3431939665379,
      "latitude_deg": -40.86230451497142,
      "longitude_deg": -36.128199582583726,
      "height_km": 508.748335005871,
      "semi_major_axis_km": 6875.737216244412,
      "eccentricity": 0.00018282,
      "inclination_deg": 43.0008,
      "raan_deg": 354.2233,
      "arg_perigee_deg": 253.627,
      "mean_anomaly_deg": 359.3321,
      "mean_motion_rev_day": 15.22733341
    },
    {
      "epoch": "2026-03-30T14:00:03.000384Z",
      "apogee_km": 497.9398009124543,
      "perigee_km": 495.1387828040988,
      "latitude_deg": -41.8661710908264,
      "longitude_deg": -118.51915549635075,
      "height_km": 508.1532658405196,
      "semi_major_axis_km": 6874.676291858276,
      "eccentricity": 0.00020372,
      "inclination_deg": 43.0008,
      "raan_deg": 352.3522,
      "arg_perigee_deg": 252.0834,
      "mean_anomaly_deg": 30.6194,
      "mean_motion_rev_day": 15.23085845
    },
    {
      "epoch": "2026-03-30T22:00:00.999936Z",
      "apogee_km": 496.5396818235531,
      "perigee_km": 494.53586815314793,
      "latitude_deg": -30.261295371029497,
      "longitude_deg": 153.70024043565542,
      "height_km": 502.8870425409661,
      "semi_major_axis_km": 6873.67477498835,
      "eccentricity": 0.00014576,
      "inclination_deg": 43.0011,
      "raan_deg": 350.4828,
      "arg_perigee_deg": 273.1127,
      "mean_anomaly_deg": 39.5664,
      "mean_motion_rev_day": 15.23418735
    },
    {
      "epoch": "2026-03-31T20:00:01.999008Z",
      "apogee_km": 493.7178238578317,
      "perigee_km": 491.4944513784976,
      "latitude_deg": -32.88264413539577,
      "longitude_deg": 172.5365936755331,
      "height_km": 501.0797454014215,
      "semi_major_axis_km": 6870.743137618164,
      "eccentricity": 0.0001618,
      "inclination_deg": 43.001,
      "raan_deg": 345.3358,
      "arg_perigee_deg": 255.195,
      "mean_anomaly_deg": 52.3916,
      "mean_motion_rev_day": 15.24393867
    }
  ]
}